[{"OBJECT_NAME":"IRIDIUM 148","OBJECT_ID":"2018-030G","EPOCH":"2026-03-09T17:19:11.405856","MEAN_MOTION":14.34218043,"ECCENTRICITY":0.00021734,"INCLINATION":86.4007,"RA_OF_ASC_NODE":332.0603,"ARG_OF_PERICENTER":85.9806,"MEAN_ANOMALY":274.1638,"EPHEMERIS_TYPE":0,"CLASSIFICATION_TYPE":"U","NORAD_CAT_ID":43255,"ELEMENT_SET_NO":999,"REV_AT_EPOCH":41591,"BSTAR":1.8722771e-5,"MEAN_MOTION_DOT":7.2e-7,"MEAN_MOTION_DDOT":0},{"OBJECT_NAME":"COSMOS 1275 DEB","OBJECT_ID":"1981-053QA","EPOCH":"2026-03-08T07:20:28.578912","MEAN_MOTION":14.40023463,"ECCENTRICITY":0.00318045,"INCLINATION":82.8159,"RA_OF_ASC_NODE":14.7821,"ARG_OF_PERICENTER":250.0879,"MEAN_ANOMALY":262.2095,"EPHEMERIS_TYPE":0,"CLASSIFICATION_TYPE":"U","NORAD_CAT_ID":42114,"ELEMENT_SET_NO":999,"REV_AT_EPOCH":63658,"BSTAR":0.0043623835,"MEAN_MOTION_DOT":0.00013858,"MEAN_MOTION_DDOT":0}]
